O3B MPOWER F1           
1 54755U 22174A   24113.32004662 -.00000019  00000+0  00000+0 0  9995
2 54755   0.0653   2.9284 0006673  34.1889 229.1819  5.00114735 26031
